{
  "norad_id": 55936,
  "name": "STARLINK-5882",
  "history": [
    {
      "epoch": "2026-03-28T18:12:55.499616Z",
      "apogee_km": 574.343265828812,
      "perigee_km": 569.7792096500534,
      "latitude_deg": 2.0146671171529846e-05,
      "longitude_deg": 116.80224244506536,
      "height_km": 574.6536167769596,
      "semi_major_axis_km": 6950.198237739432,
      "eccentricity": 0.00032834,
      "inclination_deg": 70.0005,
      "raan_deg": 216.2083,
      "arg_perigee_deg": 265.8637,
      "mean_anomaly_deg": 94.2147,
      "mean_motion_rev_day": 14.98328271
    }
  ]
}